STARLINK-30447          
1 57874U 23144L   26068.55986978 -.00000085  00000+0  64981-5 0  9990
2 57874  42.9968 260.1413 0001542 274.2299  85.8376 15.26742466137916
FLOCK 4G-9              
1 62622U 25009P   26068.80935633  .00010752  00000+0  41817-3 0  9991
2 62622  97.4000 150.6115 0003614 328.2191  31.8829 15.26202239 63696
